ONEWEB-0176             
1 48210U 21031A   26134.00209216 -.00000083  00000+0 -25732-3 0  9992
2 48210  87.8934 296.5191 0001700  93.5291 266.6033 13.14501138243828
ONEWEB-0184             
1 48211U 21031B   26133.97513992  .00000251  00000+0  64213-3 0  9999
2 48211  87.8943 296.5221 0001334  71.3906 288.7369 13.14504004243791
ONEWEB-0179             
1 48212U 21031C   26134.33334491  .00276531  00000+0  89759-1 0  9992
2 48212  87.8966 295.1295 0219245   8.2309   1.5356 14.24487673  5361
ONEWEB-0180             
1 48213U 21031D   26133.52161231  .00000276  00000+0  71035-3 0  9994
2 48213  87.8933 296.6108 0001370 103.1285 256.9997 13.14504008243665
ONEWEB-0218             
1 48214U 21031E   26134.00050654 -.00000102  00000+0 -30944-3 0  9999
2 48214  87.8936 296.5138 0001059  73.5863 286.5383 13.14503817243886
ONEWEB-0209             
1 48215U 21031F   26133.98942899  .00000162  00000+0  40283-3 0  9998
2 48215  87.8925 296.5364 0001648 100.6077 259.5239 13.14502809243889
ONEWEB-0198             
1 48216U 21031G   26133.97369507  .00000165  00000+0  41056-3 0  9999
2 48216  87.8921 296.5403 0001361  98.2347 261.8937 13.14503356243995
ONEWEB-0189             
1 48217U 21031H   26133.98624695  .00000187  00000+0  47107-3 0  9990
2 48217  87.8936 296.5201 0001425  96.2456 263.8836 13.14503041243731
ONEWEB-0196             
1 48218U 21031J   26133.96402711  .00000023  00000+0  27893-4 0  9992
2 48218  87.8929 296.5341 0001634  98.0485 262.0830 13.14504116243732
ONEWEB-0183             
1 48219U 21031K   26134.01477667 -.00000407  00000+0 -11334-2 0  9991
2 48219  87.8931 296.5225 0001931 100.5281 259.6066 13.14502416243835
ONEWEB-0185             
1 48220U 21031L   26133.96483188  .00000063  00000+0  13412-3 0  9997
2 48220  87.8940 296.5232 0001827 109.3496 250.7831 13.14504301243752
ONEWEB-0187             
1 48221U 21031M   26134.24934579 -.00000183  00000+0 -52901-3 0  9996
2 48221  87.8919 296.4873 0001635 102.6649 257.4664 13.14503754243807
ONEWEB-0192             
1 48222U 21031N   26133.99101032  .00000087  00000+0  20091-3 0  9994
2 48222  87.8924 296.5283 0001695  94.1091 266.0233 13.14502886243681
ONEWEB-0219             
1 48223U 21031P   26133.97038653  .00000160  00000+0  39780-3 0  9998
2 48223  87.8926 296.5235 0001727 104.2393 255.8928 13.14502551243883
ONEWEB-0202             
1 48224U 21031Q   26133.95134094 -.00000115  00000+0 -34591-3 0  9990
2 48224  87.8930 296.5379 0001184  82.9622 277.1642 13.14501456243863
ONEWEB-0204             
1 48225U 21031R   26133.98543969  .00000188  00000+0  47288-3 0  9994
2 48225  87.8934 296.5259 0002007 102.9424 257.1930 13.14504058243761
