[{"OBJECT_NAME":"ONEWEB-0176","OBJECT_ID":"2021-031A","EPOCH":"2026-05-14T00:03:00.762624","MEAN_MOTION":13.14501138,"ECCENTRICITY":0.00017,"INCLINATION":87.8934,"RA_OF_ASC_NODE":296.5191,"ARG_OF_PERICENTER":93.5291,"MEAN_ANOMALY":266.6033,"EPHEMERIS_TYPE":0,"CLASSIFICATION_TYPE":"U","NORAD_CAT_ID":48210,"ELEMENT_SET_NO":999,"REV_AT_EPOCH":24382,"BSTAR":-0.00025732,"MEAN_MOTION_DOT":-8.3e-07,"MEAN_MOTION_DDOT":0.0},{"OBJECT_NAME":"ONEWEB-0184","OBJECT_ID":"2021-031B","EPOCH":"2026-05-13T23:24:12.089088","MEAN_MOTION":13.14504004,"ECCENTRICITY":0.0001334,"INCLINATION":87.8943,"RA_OF_ASC_NODE":296.5221,"ARG_OF_PERICENTER":71.3906,"MEAN_ANOMALY":288.7369,"EPHEMERIS_TYPE":0,"CLASSIFICATION_TYPE":"U","NORAD_CAT_ID":48211,"ELEMENT_SET_NO":999,"REV_AT_EPOCH":24379,"BSTAR":0.00064213,"MEAN_MOTION_DOT":2.51e-06,"MEAN_MOTION_DDOT":0.0},{"OBJECT_NAME":"ONEWEB-0179","OBJECT_ID":"2021-031C","EPOCH":"2026-05-14T08:00:01.000224","MEAN_MOTION":14.24487673,"ECCENTRICITY":0.0219245,"INCLINATION":87.8966,"RA_OF_ASC_NODE":295.1295,"ARG_OF_PERICENTER":8.2309,"MEAN_ANOMALY":1.5356,"EPHEMERIS_TYPE":0,"CLASSIFICATION_TYPE":"U","NORAD_CAT_ID":48212,"ELEMENT_SET_NO":999,"REV_AT_EPOCH":536,"BSTAR":0.089759,"MEAN_MOTION_DOT":0.00276531,"MEAN_MOTION_DDOT":0.0},{"OBJECT_NAME":"ONEWEB-0180","OBJECT_ID":"2021-031D","EPOCH":"2026-05-13T12:31:07.303584","MEAN_MOTION":13.14504008,"ECCENTRICITY":0.000137,"INCLINATION":87.8933,"RA_OF_ASC_NODE":296.6108,"ARG_OF_PERICENTER":103.1285,"MEAN_ANOMALY":256.9997,"EPHEMERIS_TYPE":0,"CLASSIFICATION_TYPE":"U","NORAD_CAT_ID":48213,"ELEMENT_SET_NO":999,"REV_AT_EPOCH":24366,"BSTAR":0.00071035,"MEAN_MOTION_DOT":2.76e-06,"MEAN_MOTION_DDOT":0.0},{"OBJECT_NAME":"ONEWEB-0218","OBJECT_ID":"2021-031E","EPOCH":"2026-05-14T00:00:43.765056","MEAN_MOTION":13.14503817,"ECCENTRICITY":0.0001059,"INCLINATION":87.8936,"RA_OF_ASC_NODE":296.5138,"ARG_OF_PERICENTER":73.5863,"MEAN_ANOMALY":286.5383,"EPHEMERIS_TYPE":0,"CLASSIFICATION_TYPE":"U","NORAD_CAT_ID":48214,"ELEMENT_SET_NO":999,"REV_AT_EPOCH":24388,"BSTAR":-0.00030944,"MEAN_MOTION_DOT":-1.02e-06,"MEAN_MOTION_DDOT":0.0},{"OBJECT_NAME":"ONEWEB-0209","OBJECT_ID":"2021-031F","EPOCH":"2026-05-13T23:44:46.664736","MEAN_MOTION":13.14502809,"ECCENTRICITY":0.0001648,"INCLINATION":87.8925,"RA_OF_ASC_NODE":296.5364,"ARG_OF_PERICENTER":100.6077,"MEAN_ANOMALY":259.5239,"EPHEMERIS_TYPE":0,"CLASSIFICATION_TYPE":"U","NORAD_CAT_ID":48215,"ELEMENT_SET_NO":999,"REV_AT_EPOCH":24388,"BSTAR":0.00040283,"MEAN_MOTION_DOT":1.62e-06,"MEAN_MOTION_DDOT":0.0},{"OBJECT_NAME":"ONEWEB-0198","OBJECT_ID":"2021-031G","EPOCH":"2026-05-13T23:22:07.254048","MEAN_MOTION":13.14503356,"ECCENTRICITY":0.0001361,"INCLINATION":87.8921,"RA_OF_ASC_NODE":296.5403,"ARG_OF_PERICENTER":98.2347,"MEAN_ANOMALY":261.8937,"EPHEMERIS_TYPE":0,"CLASSIFICATION_TYPE":"U","NORAD_CAT_ID":48216,"ELEMENT_SET_NO":999,"REV_AT_EPOCH":24399,"BSTAR":0.00041055999999999997,"MEAN_MOTION_DOT":1.65e-06,"MEAN_MOTION_DDOT":0.0},{"OBJECT_NAME":"ONEWEB-0189","OBJECT_ID":"2021-031H","EPOCH":"2026-05-13T23:40:11.736480","MEAN_MOTION":13.14503041,"ECCENTRICITY":0.0001425,"INCLINATION":87.8936,"RA_OF_ASC_NODE":296.5201,"ARG_OF_PERICENTER":96.2456,"MEAN_ANOMALY":263.8836,"EPHEMERIS_TYPE":0,"CLASSIFICATION_TYPE":"U","NORAD_CAT_ID":48217,"ELEMENT_SET_NO":999,"REV_AT_EPOCH":24373,"BSTAR":0.00047107,"MEAN_MOTION_DOT":1.87e-06,"MEAN_MOTION_DDOT":0.0},{"OBJECT_NAME":"ONEWEB-0196","OBJECT_ID":"2021-031J","EPOCH":"2026-05-13T23:08:11.942304","MEAN_MOTION":13.14504116,"ECCENTRICITY":0.0001634,"INCLINATION":87.8929,"RA_OF_ASC_NODE":296.5341,"ARG_OF_PERICENTER":98.0485,"MEAN_ANOMALY":262.083,"EPHEMERIS_TYPE":0,"CLASSIFICATION_TYPE":"U","NORAD_CAT_ID":48218,"ELEMENT_SET_NO":999,"REV_AT_EPOCH":24373,"BSTAR":2.7893000000000002e-05,"MEAN_MOTION_DOT":2.3e-07,"MEAN_MOTION_DDOT":0.0},{"OBJECT_NAME":"ONEWEB-0183","OBJECT_ID":"2021-031K","EPOCH":"2026-05-14T00:21:16.704288","MEAN_MOTION":13.14502416,"ECCENTRICITY":0.0001931,"INCLINATION":87.8931,"RA_OF_ASC_NODE":296.5225,"ARG_OF_PERICENTER":100.5281,"MEAN_ANOMALY":259.6066,"EPHEMERIS_TYPE":0,"CLASSIFICATION_TYPE":"U","NORAD_CAT_ID":48219,"ELEMENT_SET_NO":999,"REV_AT_EPOCH":24383,"BSTAR":-0.0011334,"MEAN_MOTION_DOT":-4.07e-06,"MEAN_MOTION_DDOT":0.0},{"OBJECT_NAME":"ONEWEB-0185","OBJECT_ID":"2021-031L","EPOCH":"2026-05-13T23:09:21.474432","MEAN_MOTION":13.14504301,"ECCENTRICITY":0.0001827,"INCLINATION":87.894,"RA_OF_ASC_NODE":296.5232,"ARG_OF_PERICENTER":109.3496,"MEAN_ANOMALY":250.7831,"EPHEMERIS_TYPE":0,"CLASSIFICATION_TYPE":"U","NORAD_CAT_ID":48220,"ELEMENT_SET_NO":999,"REV_AT_EPOCH":24375,"BSTAR":0.00013412,"MEAN_MOTION_DOT":6.3e-07,"MEAN_MOTION_DDOT":0.0},{"OBJECT_NAME":"ONEWEB-0187","OBJECT_ID":"2021-031M","EPOCH":"2026-05-14T05:59:03.476256","MEAN_MOTION":13.14503754,"ECCENTRICITY":0.0001635,"INCLINATION":87.8919,"RA_OF_ASC_NODE":296.4873,"ARG_OF_PERICENTER":102.6649,"MEAN_ANOMALY":257.4664,"EPHEMERIS_TYPE":0,"CLASSIFICATION_TYPE":"U","NORAD_CAT_ID":48221,"ELEMENT_SET_NO":999,"REV_AT_EPOCH":24380,"BSTAR":-0.00052901,"MEAN_MOTION_DOT":-1.83e-06,"MEAN_MOTION_DDOT":0.0},{"OBJECT_NAME":"ONEWEB-0192","OBJECT_ID":"2021-031N","EPOCH":"2026-05-13T23:47:03.291648","MEAN_MOTION":13.14502886,"ECCENTRICITY":0.0001695,"INCLINATION":87.8924,"RA_OF_ASC_NODE":296.5283,"ARG_OF_PERICENTER":94.1091,"MEAN_ANOMALY":266.0233,"EPHEMERIS_TYPE":0,"CLASSIFICATION_TYPE":"U","NORAD_CAT_ID":48222,"ELEMENT_SET_NO":999,"REV_AT_EPOCH":24368,"BSTAR":0.00020091,"MEAN_MOTION_DOT":8.7e-07,"MEAN_MOTION_DDOT":0.0},{"OBJECT_NAME":"ONEWEB-0219","OBJECT_ID":"2021-031P","EPOCH":"2026-05-13T23:17:21.396192","MEAN_MOTION":13.14502551,"ECCENTRICITY":0.0001727,"INCLINATION":87.8926,"RA_OF_ASC_NODE":296.5235,"ARG_OF_PERICENTER":104.2393,"MEAN_ANOMALY":255.8928,"EPHEMERIS_TYPE":0,"CLASSIFICATION_TYPE":"U","NORAD_CAT_ID":48223,"ELEMENT_SET_NO":999,"REV_AT_EPOCH":24388,"BSTAR":0.0003978,"MEAN_MOTION_DOT":1.6e-06,"MEAN_MOTION_DDOT":0.0},{"OBJECT_NAME":"ONEWEB-0202","OBJECT_ID":"2021-031Q","EPOCH":"2026-05-13T22:49:55.857216","MEAN_MOTION":13.14501456,"ECCENTRICITY":0.0001184,"INCLINATION":87.893,"RA_OF_ASC_NODE":296.5379,"ARG_OF_PERICENTER":82.9622,"MEAN_ANOMALY":277.1642,"EPHEMERIS_TYPE":0,"CLASSIFICATION_TYPE":"U","NORAD_CAT_ID":48224,"ELEMENT_SET_NO":999,"REV_AT_EPOCH":24386,"BSTAR":-0.00034591,"MEAN_MOTION_DOT":-1.15e-06,"MEAN_MOTION_DDOT":0.0},{"OBJECT_NAME":"ONEWEB-0204","OBJECT_ID":"2021-031R","EPOCH":"2026-05-13T23:39:01.989216","MEAN_MOTION":13.14504058,"ECCENTRICITY":0.0002007,"INCLINATION":87.8934,"RA_OF_ASC_NODE":296.5259,"ARG_OF_PERICENTER":102.9424,"MEAN_ANOMALY":257.193,"EPHEMERIS_TYPE":0,"CLASSIFICATION_TYPE":"U","NORAD_CAT_ID":48225,"ELEMENT_SET_NO":999,"REV_AT_EPOCH":24376,"BSTAR":0.00047288,"MEAN_MOTION_DOT":1.88e-06,"MEAN_MOTION_DDOT":0.0}]